{
    "links": {
        "self": "http://www.neowsapp.com/rest/v1/neo/3692284?api_key=iIulBulltgU6a56xZRHN4H3l9WmuAYTsLGpBGhQ2"
    },
    "id": "3692284",
    "neo_reference_id": "3692284",
    "name": "(2014 SE324)",
    "designation": "2014 SE324",
    "nasa_jpl_url": "http://ssd.jpl.nasa.gov/sbdb.cgi?sstr=3692284",
    "absolute_magnitude_h": 21.9,
    "estimated_diameter": {
        "kilometers": {
            "estimated_diameter_min": 0.1108038821,
            "estimated_diameter_max": 0.2477650126
        },
        "meters": {
            "estimated_diameter_min": 110.8038821264,
            "estimated_diameter_max": 247.7650126055
        },
        "miles": {
            "estimated_diameter_min": 0.068850319,
            "estimated_diameter_max": 0.1539539936
        },
        "feet": {
            "estimated_diameter_min": 363.5298086356,
            "estimated_diameter_max": 812.8773639568
        }
    },
    "is_potentially_hazardous_asteroid": false,
    "close_approach_data": [
        {
            "close_approach_date": "1987-06-29",
            "close_approach_date_full": "1987-Jun-29 15:10",
            "epoch_date_close_approach": 551977800000,
            "relative_velocity": {
                "kilometers_per_second": "13.8320789598",
                "kilometers_per_hour": "49795.4842551162",
                "miles_per_hour": "30940.9774250748"
            },
            "miss_distance": {
                "astronomical": "0.4460484736",
                "lunar": "173.5128562304",
                "kilometers": "66727901.567311232",
                "miles": "41462795.3785577216"
            },
            "orbiting_body": "Earth"
        },
        {
            "close_approach_date": "2006-10-22",
            "close_approach_date_full": "2006-Oct-22 22:19",
            "epoch_date_close_approach": 1161555540000,
            "relative_velocity": {
                "kilometers_per_second": "8.4069561371",
                "kilometers_per_hour": "30265.0420936747",
                "miles_per_hour": "18805.5201831503"
            },
            "miss_distance": {
                "astronomical": "0.0708328491",
                "lunar": "27.5539782999",
                "kilometers": "10596443.351391417",
                "miles": "6584324.5793668746"
            },
            "orbiting_body": "Mars"
        },
        {
            "close_approach_date": "2009-08-25",
            "close_approach_date_full": "2009-Aug-25 10:29",
            "epoch_date_close_approach": 1251196140000,
            "relative_velocity": {
                "kilometers_per_second": "10.9081661612",
                "kilometers_per_hour": "39269.3981804424",
                "miles_per_hour": "24400.4768860643"
            },
            "miss_distance": {
                "astronomical": "0.3082728235",
                "lunar": "119.9181283415",
                "kilometers": "46116957.774485945",
                "miles": "28655748.776338241"
            },
            "orbiting_body": "Earth"
        },
        {
            "close_approach_date": "2014-07-10",
            "close_approach_date_full": "2014-Jul-10 00:58",
            "epoch_date_close_approach": 1404953880000,
            "relative_velocity": {
                "kilometers_per_second": "9.6109805708",
                "kilometers_per_hour": "34599.530054944",
                "miles_per_hour": "21498.8024388623"
            },
            "miss_distance": {
                "astronomical": "0.3142058626",
                "lunar": "122.2260805514",
                "kilometers": "47004527.786472662",
                "miles": "29207259.2079082556"
            },
            "orbiting_body": "Earth"
        },
        {
            "close_approach_date": "2036-08-31",
            "close_approach_date_full": "2036-Aug-31 08:57",
            "epoch_date_close_approach": 2103785820000,
            "relative_velocity": {
                "kilometers_per_second": "14.2493976177",
                "kilometers_per_hour": "51297.8314236149",
                "miles_per_hour": "31874.4775309678"
            },
            "miss_distance": {
                "astronomical": "0.4241353838",
                "lunar": "164.9886642982",
                "kilometers": "63449750.008112506",
                "miles": "39425846.4542483428"
            },
            "orbiting_body": "Earth"
        }
    ],
    "orbital_data": {
        "orbit_id": "8",
        "orbit_determination_date": "2017-04-06 08:38:18",
        "first_observation_date": "2014-09-30",
        "last_observation_date": "2014-10-28",
        "data_arc_in_days": 28,
        "observations_used": 35,
        "orbit_uncertainty": "7",
        "minimum_orbit_intersection": ".141894",
        "jupiter_tisserand_invariant": "3.943",
        "epoch_osculation": "2459000.5",
        "eccentricity": ".3853134607760818",
        "semi_major_axis": "1.820512593613613",
        "inclination": "6.349014921447055",
        "ascending_node_longitude": "186.1719196328981",
        "orbital_period": "897.1993664064674",
        "perihelion_distance": "1.119044585781911",
        "perihelion_argument": "121.1534458770972",
        "aphelion_distance": "2.521980601445315",
        "perihelion_time": "2458647.923273899718",
        "mean_anomaly": "141.4709217913091",
        "mean_motion": ".4012486114896625",
        "equinox": "J2000",
        "orbit_class": {
            "orbit_class_type": "AMO",
            "orbit_class_description": "Near-Earth asteroid orbits similar to that of 1221 Amor",
            "orbit_class_range": "1.017 AU < q (perihelion) < 1.3 AU"
        }
    },
    "is_sentry_object": false
}